NORAD_CAT_ID,OBJECT_NAME,OBJECT_TYPE,EPOCH,MEAN_MOTION,ECCENTRICITY,INCLINATION,RA_OF_ASC_NODE,ARG_OF_PERICENTER,MEAN_ANOMALY,BSTAR,MEAN_MOTION_DOT,MEAN_MOTION_DDOT,TLE_LINE0,TLE_LINE1,TLE_LINE2,SEMIMAJOR_AXIS,PERIOD,APOGEE,PERIGEE,DECAYED
53715.0,STARLINK-4686,PAYLOAD,2023-08-28 21:06:33,15.08838049,0.0001376,53.2167,80.9803,87.8515,272.2635,0.00014747,2.06e-05,0.0,0 STARLINK-4686,1 53715U 22107R   23240.87955470  .00002060  00000-0  14747-3 0  9993,2 53715  53.2167  80.9803 0001376  87.8515 272.2635 15.08838049 54952,6917.886,95.438,540.703,538.799,0.0
53715.0,STARLINK-4686,PAYLOAD,2023-08-29 19:21:57,15.08840954,0.0001373,53.2168,76.8168,87.4948,272.6202,0.00011835,1.596e-05,0.0,0 STARLINK-4686,1 53715U 22107R   23241.80691605  .00001596  00000-0  11835-3 0  9992,2 53715  53.2168  76.8168 0001373  87.4948 272.6202 15.08840954 55092,6917.877,95.437,540.692,538.793,0.0
53715.0,STARLINK-4686,PAYLOAD,2023-08-30 16:01:58,15.08844296,0.0001306,53.2164,72.9517,87.3759,272.7383,0.00019314,2.788e-05,0.0,0 STARLINK-4686,1 53715U 22107R   23242.66803463  .00002788  00000-0  19314-3 0  9998,2 53715  53.2164  72.9517 0001306  87.3759 272.7383 15.08844296 54765,6917.867,95.437,540.636,538.829,0.0
53715.0,STARLINK-4686,PAYLOAD,2023-08-30 19:12:44,15.08851612,0.0001002,53.2165,72.3614,75.763,284.3473,0.00031615,4.749e-05,0.0,0 STARLINK-4686,1 53715U 22107R   23242.80050973  .00004749  00000-0  31615-3 0  9991,2 53715  53.2165  72.3614 0001002  75.7630 284.3473 15.08851612 55243,6917.845,95.437,540.403,539.017,0.0
53715.0,STARLINK-4686,PAYLOAD,2023-08-31 11:06:37,15.08803733,0.0001795,53.2173,69.3896,134.0095,226.1045,7.4744e-05,9.01e-06,0.0,0 STARLINK-4686,1 53715U 22107R   23243.46293205  .00000901  00000-0  74744-4 0  9998,2 53715  53.2173  69.3896 0001795 134.0095 226.1045 15.08803733 54882,6917.991,95.44,541.098,538.614,0.0
53715.0,STARLINK-4686,PAYLOAD,2023-08-31 23:49:40,15.08843875,5.34e-05,53.2169,67.0123,106.2913,253.8138,-4.1595e-05,-9.5e-06,0.0,0 STARLINK-4686,1 53715U 22107R   23243.99283142 -.00000950  00000-0 -41595-4 0  9999,2 53715  53.2169  67.0123 0000534 106.2913 253.8138 15.08843875 54965,6917.869,95.437,540.103,539.364,0.0
53715.0,STARLINK-4686,PAYLOAD,2023-09-01 12:32:47,15.08813533,3.35e-05,53.2176,64.6331,331.8502,28.2472,0.001103,0.00017297,0.0,0 STARLINK-4686,1 53715U 22107R   23244.52277179  .00017297  00000-0  11030-2 0  9991,2 53715  53.2176  64.6331 0000335 331.8502  28.2472 15.08813533 55049,6917.961,95.439,540.058,539.595,0.0
53715.0,STARLINK-4686,PAYLOAD,2023-09-01 18:54:22,15.08769825,6.6e-06,53.2176,63.4415,83.4498,276.6502,0.00016968,2.409e-05,0.0,0 STARLINK-4686,1 53715U 22107R   23244.78775534  .00002409  00000-0  16968-3 0  9992,2 53715  53.2176  63.4415 0000066  83.4498 276.6502 15.08769825 55085,6918.095,95.442,540.006,539.914,0.0
53715.0,STARLINK-4686,PAYLOAD,2023-09-02 10:48:10,15.08840106,0.0001442,53.2185,60.4657,97.1142,263.0014,0.00011183,1.492e-05,0.0,0 STARLINK-4686,1 53715U 22107R   23245.45011910  .00001492  00000-0  11183-3 0  9993,2 53715  53.2185  60.4657 0001442  97.1142 263.0014 15.08840106 55188,6917.88,95.438,540.743,538.748,0.0
53715.0,STARLINK-4686,PAYLOAD,2023-09-02 12:23:33,15.08835191,0.0001599,53.2167,60.1662,100.3714,259.7458,5.5027e-05,5.88e-06,0.0,0 STARLINK-4686,1 53715U 22107R   23245.51636147  .00000588  00000-0  55027-4 0  9996,2 53715  53.2167  60.1662 0001599 100.3714 259.7458 15.08835191 55650,6917.895,95.438,540.866,538.654,0.0
53715.0,STARLINK-4686,PAYLOAD,2023-09-02 15:34:19,15.0883745,0.0001589,53.2202,59.5721,92.8469,267.2705,4.6969e-05,4.6e-06,0.0,0 STARLINK-4686,1 53715U 22107R   23245.64884124  .00000460  00000-0  46969-4 0  9994,2 53715  53.2202  59.5721 0001589  92.8469 267.2705 15.08837450 55670,6917.888,95.438,540.852,538.654,0.0
53715.0,STARLINK-4686,PAYLOAD,2023-09-03 18:35:52,15.08848444,0.0001538,53.2194,54.5178,96.5173,263.5994,0.00011579,1.556e-05,0.0,0 STARLINK-4686,1 53715U 22107R   23246.77491542  .00001556  00000-0  11579-3 0  9992,2 53715  53.2194  54.5178 0001538  96.5173 263.5994 15.08848444 55380,6917.855,95.437,540.784,538.656,0.0
53715.0,STARLINK-4686,PAYLOAD,2023-09-04 10:29:44,15.08832624,0.0001846,53.2169,51.5408,77.4487,282.6712,8.8041e-06,-1.48e-06,0.0,0 STARLINK-4686,1 53715U 22107R   23247.43732336 -.00000148  00000-0  88041-5 0  9992,2 53715  53.2169  51.5408 0001846  77.4487 282.6712 15.08832624 55487,6917.903,95.438,541.045,538.491,0.0
53715.0,STARLINK-4686,PAYLOAD,2023-09-05 10:20:31,15.08860868,0.0001441,53.2184,47.0807,92.7998,267.3159,-0.0002306,-3.958e-05,0.0,0 STARLINK-4686,1 53715U 22107R   23248.43092358 -.00003958  00000-0 -23060-3 0  9997,2 53715  53.2184  47.0807 0001441  92.7998 267.3159 15.08860868 55638,6917.817,95.436,540.678,538.685,0.0
53715.0,STARLINK-4686,PAYLOAD,2023-09-06 03:49:45,15.0886213,0.000138,53.2185,43.8099,92.2405,267.8745,-0.00016837,-2.968e-05,0.0,0 STARLINK-4686,1 53715U 22107R   23249.15955217 -.00002968  00000-0 -16837-3 0  9993,2 53715  53.2185  43.8099 0001380  92.2405 267.8745 15.08862130 56200,6917.813,95.436,540.632,538.723,0.0
53715.0,STARLINK-4686,PAYLOAD,2023-09-06 16:32:51,15.08843597,0.0001344,53.2189,41.4323,90.0585,270.0561,0.0001613,2.28e-05,0.0,0 STARLINK-4686,1 53715U 22107R   23249.68948169  .00002280  00000-0  16130-3 0  9990,2 53715  53.2189  41.4323 0001344  90.0585 270.0561 15.08843597 55828,6917.869,95.437,540.664,538.805,0.0
53715.0,STARLINK-4686,PAYLOAD,2023-09-06 19:43:37,15.08847332,0.0001445,53.2191,40.8375,89.1076,271.0082,0.00019396,2.801e-05,0.0,0 STARLINK-4686,1 53715U 22107R   23249.82195908  .00002801  00000-0  19396-3 0  9997,2 53715  53.2191  40.8375 0001445  89.1076 271.0082 15.08847332 56301,6917.858,95.437,540.723,538.723,0.0
53715.0,STARLINK-4686,PAYLOAD,2023-09-07 03:40:33,15.08841036,0.0001475,53.2174,39.3508,86.9637,273.1524,0.00010507,1.385e-05,0.0,0 STARLINK-4686,1 53715U 22107R   23250.15316418  .00001385  00000-0  10507-3 0  9997,2 53715  53.2174  39.3508 0001475  86.9637 273.1524 15.08841036 56358,6917.877,95.437,540.763,538.722,0.0
53715.0,STARLINK-4686,PAYLOAD,2023-09-07 13:12:52,15.08841823,0.000143,53.2177,37.5667,88.2595,271.8561,9.0573e-05,1.154e-05,0.0,0 STARLINK-4686,1 53715U 22107R   23250.55060392  .00001154  00000-0  90573-4 0  9994,2 53715  53.2177  37.5667 0001430  88.2595 271.8561 15.08841823 55951,6917.875,95.437,540.729,538.751,0.0
53715.0,STARLINK-4686,PAYLOAD,2023-09-07 19:34:24,15.08843725,0.000144,53.2177,36.3774,82.4673,277.6482,8.3298e-05,1.038e-05,0.0,0 STARLINK-4686,1 53715U 22107R   23250.81556309  .00001038  00000-0  83298-4 0  9998,2 53715  53.2177  36.3774 0001440  82.4673 277.6482 15.08843725 56456,6917.869,95.437,540.73,538.738,0.0
53715.0,STARLINK-4686,PAYLOAD,2023-09-07 21:09:47,15.0885511,0.0001552,53.2173,36.0801,86.5621,273.5549,1.2791e-05,-8.4e-07,0.0,0 STARLINK-4686,1 53715U 22107R   23250.88179519 -.00000084  00000-0  12791-4 0  9990,2 53715  53.2173  36.0801 0001552  86.5621 273.5549 15.08855110 56003,6917.834,95.437,540.773,538.626,0.0
53715.0,STARLINK-4686,PAYLOAD,2023-09-08 03:31:20,15.08835226,0.0001672,53.2187,34.8883,88.8048,271.3136,8.6778e-06,-1.5e-06,0.0,0 STARLINK-4686,1 53715U 22107R   23251.14676881 -.00000150  00000-0  86778-5 0  9995,2 53715  53.2187  34.8883 0001672  88.8048 271.3136 15.08835226 56043,6917.895,95.438,540.917,538.603,0.0
53715.0,STARLINK-4686,PAYLOAD,2023-09-08 13:03:39,15.08835348,0.0001415,53.2185,33.1063,82.7926,277.3227,1.3709e-05,-7e-07,0.0,0 STARLINK-4686,1 53715U 22107R   23251.54421024 -.00000070  00000-0  13709-4 0  9990,2 53715  53.2185  33.1063 0001415  82.7926 277.3227 15.08835348 56565,6917.895,95.438,540.738,538.781,0.0
53715.0,STARLINK-4686,PAYLOAD,2023-09-08 21:00:34,15.08846341,0.00014,53.2184,31.6188,87.8972,272.218,6.916e-05,8.13e-06,0.0,0 STARLINK-4686,1 53715U 22107R   23251.87540181  .00000813  00000-0  69160-4 0  9998,2 53715  53.2184  31.6188 0001400  87.8972 272.2180 15.08846341 56619,6917.861,95.437,540.695,538.758,0.0
53715.0,STARLINK-4686,PAYLOAD,2023-09-09 09:43:40,15.0883572,0.0001423,53.2191,29.237,107.4912,252.6236,4.4131e-05,4.14e-06,0.0,0 STARLINK-4686,1 53715U 22107R   23252.40532936  .00000414  00000-0  44131-4 0  9995,2 53715  53.2191  29.2370 0001423 107.4912 252.6236 15.08835720 56232,6917.893,95.438,540.743,538.774,0.0
53715.0,STARLINK-4686,PAYLOAD,2023-09-09 12:54:26,15.08840137,0.0001478,53.2177,28.6457,88.1319,271.9843,7.5206e-05,9.09e-06,0.0,0 STARLINK-4686,1 53715U 22107R   23252.53780796  .00000909  00000-0  75206-4 0  9994,2 53715  53.2177  28.6457 0001478  88.1319 271.9843 15.08840137 56710,6917.88,95.438,540.767,538.723,0.0
53715.0,STARLINK-4686,PAYLOAD,2023-09-09 16:05:12,15.08848223,0.0001229,53.2187,28.0512,86.4565,273.6568,7.475e-05,9.02e-06,0.0,0 STARLINK-4686,1 53715U 22107R   23252.67028257  .00000902  00000-0  74750-4 0  9992,2 53715  53.2187  28.0512 0001229  86.4565 273.6568 15.08848223 56273,6917.855,95.437,540.57,538.87,0.0
53715.0,STARLINK-4686,PAYLOAD,2023-09-10 01:37:31,15.08837,0.0001354,53.218,26.2646,85.9398,274.1749,0.0001722,2.453e-05,0.0,0 STARLINK-4686,1 53715U 22107R   23253.06772874  .00002453  00000-0  17220-3 0  9998,2 53715  53.2180  26.2646 0001354  85.9398 274.1749 15.08837000 56336,6917.89,95.438,540.691,538.818,0.0
53715.0,STARLINK-4686,PAYLOAD,2023-09-10 12:45:13,15.08844563,0.0001395,53.2192,24.1845,93.1251,266.9901,0.00018462,2.652e-05,0.0,0 STARLINK-4686,1 53715U 22107R   23253.53140575  .00002652  00000-0  18462-3 0  9997,2 53715  53.2192  24.1845 0001395  93.1251 266.9901 15.08844563 56860,6917.866,95.437,540.696,538.766,0.0
53715.0,STARLINK-4686,PAYLOAD,2023-09-10 15:55:59,15.08850595,0.0001371,53.2191,23.5906,91.1676,268.9473,0.00028113,4.19e-05,0.0,0 STARLINK-4686,1 53715U 22107R   23253.66388328  .00004190  00000-0  28113-3 0  9994,2 53715  53.2191  23.5906 0001371  91.1676 268.9473 15.08850595 56423,6917.848,95.437,540.661,538.765,0.0
